{"type": "FeatureCollection", "features": [{"type": "Feature", "geometry": {"type": "LineString", "coordinates": [[-81.7, 17.2], [-81.9, 17.8], [-82.2, 18.2], [-82.8, 18.6], [-83.7, 19.2], [-84.6, 19.4], [-85.2, 19.7], [-85.9, 20.3], [-86.2, 21.1], [-86.5, 22.0], [-86.7, 22.8], [-86.5, 23.6], [-85.8, 24.7], [-85.0, 26.6], [-84.3, 28.7], [-83.5, 30.8], [-83.3, 31.3], [-83.1, 32.9], [-83.2, 34.4], [-84.9, 36.8], [-86.6, 38.1], [-88.1, 37.4], [-87.6, 36.6], [-87.0, 37.1]]}, "properties": {"kind": "track", "storm": "HELENE", "storm_id": "AL092024", "start": "2024-09-23T12:00:00Z", "end": "2024-09-28T18:00:00Z", "max_wind_kt": 120, "source_url": "https://www.nhc.noaa.gov/gis/best_track/al092024_best_track.zip"}}, {"type": "Feature", "geometry": {"type": "Point", "coordinates": [-81.7, 17.2]}, "properties": {"kind": "fix", "storm": "HELENE", "storm_id": "AL092024", "datetime": "2024-09-23T12:00:00Z", "wind_kt": 30, "pressure_mb": 1004, "storm_type": "DB", "storm_type_desc": "disturbance", "category": "DB", "saffir_simpson": 0, "source_url": "https://www.nhc.noaa.gov/gis/best_track/al092024_best_track.zip"}}, {"type": "Feature", "geometry": {"type": "Point", "coordinates": [-81.9, 17.8]}, "properties": {"kind": "fix", "storm": "HELENE", "storm_id": "AL092024", "datetime": "2024-09-23T18:00:00Z", "wind_kt": 35, "pressure_mb": 1004, "storm_type": "DB", "storm_type_desc": "disturbance", "category": "DB", "saffir_simpson": 0, "source_url": "https://www.nhc.noaa.gov/gis/best_track/al092024_best_track.zip"}}, {"type": "Feature", "geometry": {"type": "Point", "coordinates": [-82.2, 18.2]}, "properties": {"kind": "fix", "storm": "HELENE", "storm_id": "AL092024", "datetime": "2024-09-24T00:00:00Z", "wind_kt": 35, "pressure_mb": 1002, "storm_type": "DB", "storm_type_desc": "disturbance", "category": "DB", "saffir_simpson": 0, "source_url": "https://www.nhc.noaa.gov/gis/best_track/al092024_best_track.zip"}}, {"type": "Feature", "geometry": {"type": "Point", "coordinates": [-82.8, 18.6]}, "properties": {"kind": "fix", "storm": "HELENE", "storm_id": "AL092024", "datetime": "2024-09-24T06:00:00Z", "wind_kt": 35, "pressure_mb": 1001, "storm_type": "DB", "storm_type_desc": "disturbance", "category": "DB", "saffir_simpson": 0, "source_url": "https://www.nhc.noaa.gov/gis/best_track/al092024_best_track.zip"}}, {"type": "Feature", "geometry": {"type": "Point", "coordinates": [-83.7, 19.2]}, "properties": {"kind": "fix", "storm": "HELENE", "storm_id": "AL092024", "datetime": "2024-09-24T12:00:00Z", "wind_kt": 40, "pressure_mb": 999, "storm_type": "TS", "storm_type_desc": "tropical storm", "category": "TS", "saffir_simpson": 0, "source_url": "https://www.nhc.noaa.gov/gis/best_track/al092024_best_track.zip"}}, {"type": "Feature", "geometry": {"type": "Point", "coordinates": [-84.6, 19.4]}, "properties": {"kind": "fix", "storm": "HELENE", "storm_id": "AL092024", "datetime": "2024-09-24T18:00:00Z", "wind_kt": 45, "pressure_mb": 997, "storm_type": "TS", "storm_type_desc": "tropical storm", "category": "TS", "saffir_simpson": 0, "source_url": "https://www.nhc.noaa.gov/gis/best_track/al092024_best_track.zip"}}, {"type": "Feature", "geometry": {"type": "Point", "coordinates": [-85.2, 19.7]}, "properties": {"kind": "fix", "storm": "HELENE", "storm_id": "AL092024", "datetime": "2024-09-25T00:00:00Z", "wind_kt": 50, "pressure_mb": 990, "storm_type": "TS", "storm_type_desc": "tropical storm", "category": "TS", "saffir_simpson": 0, "source_url": "https://www.nhc.noaa.gov/gis/best_track/al092024_best_track.zip"}}, {"type": "Feature", "geometry": {"type": "Point", "coordinates": [-85.9, 20.3]}, "properties": {"kind": "fix", "storm": "HELENE", "storm_id": "AL092024", "datetime": "2024-09-25T06:00:00Z", "wind_kt": 55, "pressure_mb": 985, "storm_type": "TS", "storm_type_desc": "tropical storm", "category": "TS", "saffir_simpson": 0, "source_url": "https://www.nhc.noaa.gov/gis/best_track/al092024_best_track.zip"}}, {"type": "Feature", "geometry": {"type": "Point", "coordinates": [-86.2, 21.1]}, "properties": {"kind": "fix", "storm": "HELENE", "storm_id": "AL092024", "datetime": "2024-09-25T12:00:00Z", "wind_kt": 65, "pressure_mb": 979, "storm_type": "HU", "storm_type_desc": "hurricane", "category": "Cat 1", "saffir_simpson": 1, "source_url": "https://www.nhc.noaa.gov/gis/best_track/al092024_best_track.zip"}}, {"type": "Feature", "geometry": {"type": "Point", "coordinates": [-86.5, 22.0]}, "properties": {"kind": "fix", "storm": "HELENE", "storm_id": "AL092024", "datetime": "2024-09-25T18:00:00Z", "wind_kt": 70, "pressure_mb": 978, "storm_type": "HU", "storm_type_desc": "hurricane", "category": "Cat 1", "saffir_simpson": 1, "source_url": "https://www.nhc.noaa.gov/gis/best_track/al092024_best_track.zip"}}, {"type": "Feature", "geometry": {"type": "Point", "coordinates": [-86.7, 22.8]}, "properties": {"kind": "fix", "storm": "HELENE", "storm_id": "AL092024", "datetime": "2024-09-26T00:00:00Z", "wind_kt": 70, "pressure_mb": 973, "storm_type": "HU", "storm_type_desc": "hurricane", "category": "Cat 1", "saffir_simpson": 1, "source_url": "https://www.nhc.noaa.gov/gis/best_track/al092024_best_track.zip"}}, {"type": "Feature", "geometry": {"type": "Point", "coordinates": [-86.5, 23.6]}, "properties": {"kind": "fix", "storm": "HELENE", "storm_id": "AL092024", "datetime": "2024-09-26T06:00:00Z", "wind_kt": 75, "pressure_mb": 970, "storm_type": "HU", "storm_type_desc": "hurricane", "category": "Cat 1", "saffir_simpson": 1, "source_url": "https://www.nhc.noaa.gov/gis/best_track/al092024_best_track.zip"}}, {"type": "Feature", "geometry": {"type": "Point", "coordinates": [-85.8, 24.7]}, "properties": {"kind": "fix", "storm": "HELENE", "storm_id": "AL092024", "datetime": "2024-09-26T12:00:00Z", "wind_kt": 85, "pressure_mb": 963, "storm_type": "HU", "storm_type_desc": "hurricane", "category": "Cat 2", "saffir_simpson": 2, "source_url": "https://www.nhc.noaa.gov/gis/best_track/al092024_best_track.zip"}}, {"type": "Feature", "geometry": {"type": "Point", "coordinates": [-85.0, 26.6]}, "properties": {"kind": "fix", "storm": "HELENE", "storm_id": "AL092024", "datetime": "2024-09-26T18:00:00Z", "wind_kt": 105, "pressure_mb": 958, "storm_type": "HU", "storm_type_desc": "hurricane", "category": "Cat 3", "saffir_simpson": 3, "source_url": "https://www.nhc.noaa.gov/gis/best_track/al092024_best_track.zip"}}, {"type": "Feature", "geometry": {"type": "Point", "coordinates": [-84.3, 28.7]}, "properties": {"kind": "fix", "storm": "HELENE", "storm_id": "AL092024", "datetime": "2024-09-27T00:00:00Z", "wind_kt": 120, "pressure_mb": 941, "storm_type": "HU", "storm_type_desc": "hurricane", "category": "Cat 4", "saffir_simpson": 4, "source_url": "https://www.nhc.noaa.gov/gis/best_track/al092024_best_track.zip"}}, {"type": "Feature", "geometry": {"type": "Point", "coordinates": [-83.5, 30.8]}, "properties": {"kind": "fix", "storm": "HELENE", "storm_id": "AL092024", "datetime": "2024-09-27T05:00:00Z", "wind_kt": 95, "pressure_mb": 947, "storm_type": "HU", "storm_type_desc": "hurricane", "category": "Cat 2", "saffir_simpson": 2, "source_url": "https://www.nhc.noaa.gov/gis/best_track/al092024_best_track.zip"}}, {"type": "Feature", "geometry": {"type": "Point", "coordinates": [-83.3, 31.3]}, "properties": {"kind": "fix", "storm": "HELENE", "storm_id": "AL092024", "datetime": "2024-09-27T06:00:00Z", "wind_kt": 80, "pressure_mb": 957, "storm_type": "HU", "storm_type_desc": "hurricane", "category": "Cat 1", "saffir_simpson": 1, "source_url": "https://www.nhc.noaa.gov/gis/best_track/al092024_best_track.zip"}}, {"type": "Feature", "geometry": {"type": "Point", "coordinates": [-83.1, 32.9]}, "properties": {"kind": "fix", "storm": "HELENE", "storm_id": "AL092024", "datetime": "2024-09-27T09:00:00Z", "wind_kt": 60, "pressure_mb": 967, "storm_type": "TS", "storm_type_desc": "tropical storm", "category": "TS", "saffir_simpson": 0, "source_url": "https://www.nhc.noaa.gov/gis/best_track/al092024_best_track.zip"}}, {"type": "Feature", "geometry": {"type": "Point", "coordinates": [-83.2, 34.4]}, "properties": {"kind": "fix", "storm": "HELENE", "storm_id": "AL092024", "datetime": "2024-09-27T12:00:00Z", "wind_kt": 45, "pressure_mb": 973, "storm_type": "TS", "storm_type_desc": "tropical storm", "category": "TS", "saffir_simpson": 0, "source_url": "https://www.nhc.noaa.gov/gis/best_track/al092024_best_track.zip"}}, {"type": "Feature", "geometry": {"type": "Point", "coordinates": [-84.9, 36.8]}, "properties": {"kind": "fix", "storm": "HELENE", "storm_id": "AL092024", "datetime": "2024-09-27T18:00:00Z", "wind_kt": 40, "pressure_mb": 983, "storm_type": "LO", "storm_type_desc": "low", "category": "LO", "saffir_simpson": 0, "source_url": "https://www.nhc.noaa.gov/gis/best_track/al092024_best_track.zip"}}, {"type": "Feature", "geometry": {"type": "Point", "coordinates": [-86.6, 38.1]}, "properties": {"kind": "fix", "storm": "HELENE", "storm_id": "AL092024", "datetime": "2024-09-28T00:00:00Z", "wind_kt": 40, "pressure_mb": 985, "storm_type": "LO", "storm_type_desc": "low", "category": "LO", "saffir_simpson": 0, "source_url": "https://www.nhc.noaa.gov/gis/best_track/al092024_best_track.zip"}}, {"type": "Feature", "geometry": {"type": "Point", "coordinates": [-88.1, 37.4]}, "properties": {"kind": "fix", "storm": "HELENE", "storm_id": "AL092024", "datetime": "2024-09-28T06:00:00Z", "wind_kt": 30, "pressure_mb": 992, "storm_type": "LO", "storm_type_desc": "low", "category": "LO", "saffir_simpson": 0, "source_url": "https://www.nhc.noaa.gov/gis/best_track/al092024_best_track.zip"}}, {"type": "Feature", "geometry": {"type": "Point", "coordinates": [-87.6, 36.6]}, "properties": {"kind": "fix", "storm": "HELENE", "storm_id": "AL092024", "datetime": "2024-09-28T12:00:00Z", "wind_kt": 25, "pressure_mb": 997, "storm_type": "LO", "storm_type_desc": "low", "category": "LO", "saffir_simpson": 0, "source_url": "https://www.nhc.noaa.gov/gis/best_track/al092024_best_track.zip"}}, {"type": "Feature", "geometry": {"type": "Point", "coordinates": [-87.0, 37.1]}, "properties": {"kind": "fix", "storm": "HELENE", "storm_id": "AL092024", "datetime": "2024-09-28T18:00:00Z", "wind_kt": 20, "pressure_mb": 1000, "storm_type": "LO", "storm_type_desc": "low", "category": "LO", "saffir_simpson": 0, "source_url": "https://www.nhc.noaa.gov/gis/best_track/al092024_best_track.zip"}}]}